     2.100          NAVIGATION                              RINEX VERSION / TYPE
fic2rin                                 06/15/2012 00:19:01 PGM / RUN BY / DATE
                                                            END OF HEADER
10 12  6 14 15 59 44.0 -.414312817156D-04 -.125055521494D-11  .000000000000D+00
     .120000000000D+02  .660312500000D+02  .478769942690D-08 -.977468098327D-01
     .359304249287D-05  .113014361123D-01  .917352735996D-05  .515370762634D+04
     .403184000000D+06  .428408384323D-07 -.414943034900D+00  .137835741043D-06
     .945959170402D+00  .197375000000D+03  .751712534793D+00 -.827713048999D-08
     .350014579512D-10  .100000000000D+01  .169200000000D+04  .000000000000D+00
     .240000000000D+01  .000000000000D+00 -.232830643654D-08  .120000000000D+02
     .396006000000D+06  .400000000000D+01
23 12  6 14 15 59 44.0  .195385888219D-03 -.375166564481D-11  .000000000000D+00
     .500000000000D+01  .507187500000D+02  .482020078071D-08 -.230776124734D+01
     .247359275818D-05  .799486110918D-02  .357814133167D-05  .515362197876D+04
     .403184000000D+06 -.838190317154D-07  .625194774032D+00 -.162050127983D-06
     .960151159590D+00  .315843750000D+03 -.299820119340D+01 -.833606151614D-08
     .183936233111D-09  .100000000000D+01  .169200000000D+04  .000000000000D+00
     .240000000000D+01  .000000000000D+00 -.200234353542D-07  .500000000000D+01
     .396006000000D+06  .400000000000D+01
26 12  6 14 15 59 44.0 -.374530442059D-03  .103455022327D-10  .000000000000D+00
     .660000000000D+02  .426250000000D+02  .421088968617D-08 -.245464423216D+01
     .204518437386D-05  .208679239731D-01  .273063778877D-05  .515366646004D+04
     .403184000000D+06  .340864062309D-06  .698313656435D+00  .204890966415D-07
     .983241785407D+00  .334937500000D+03  .120015370486D+01 -.779711049523D-08
     .273939982128D-09  .100000000000D+01  .169200000000D+04  .000000000000D+00
     .240000000000D+01  .000000000000D+00 -.605359673500D-08  .660000000000D+02
     .396006000000D+06  .400000000000D+01
 1 12  6 14 16  0  0.0  .261333305389D-03  .170530256582D-11  .000000000000D+00
     .750000000000D+02 -.124375000000D+02  .454518932538D-08  .293244396786D+01
    -.543892383575D-06  .789809389971D-03  .845268368721D-05  .515364642525D+04
     .403200000000D+06  .298023223877D-07 -.148580858813D+01 -.484287738800D-07
     .959660948908D+00  .215531250000D+03  .254389776972D+00 -.798604693662D-08
    -.280368821344D-09  .100000000000D+01  .169200000000D+04  .000000000000D+00
     .240000000000D+01  .000000000000D+00  .838190317154D-08  .750000000000D+02
     .396006000000D+06  .400000000000D+01
 2 12  6 14 16  0  0.0  .393640249968D-03  .125055521494D-11  .000000000000D+00
     .600000000000D+02 -.234062500000D+02  .492663378550D-08 -.245727757833D+01
    -.121258199215D-05  .112827244448D-01  .811927020550D-05  .515370784569D+04
     .403200000000D+06 -.707805156708D-07 -.149993305487D+01 -.169500708580D-06
     .938205344704D+00  .210656250000D+03 -.277282200797D+01 -.808069373619D-08
    -.178221709364D-09  .100000000000D+01  .169200000000D+04  .000000000000D+00
     .240000000000D+01  .000000000000D+00 -.172294676304D-07  .600000000000D+02
     .396006000000D+06  .400000000000D+01
 3 12  6 14 16  0  0.0  .623441301286D-04  .500222085975D-11  .000000000000D+00
     .810000000000D+02  .625000000000D-01  .520235955630D-08 -.228123273770D+01
     .242143869400D-07  .153842557920D-01  .596605241299D-05  .515371489334D+04
     .403200000000D+06  .171363353729D-06 -.266429980438D+01 -.912696123123D-07
     .931549597020D+00  .246343750000D+03  .119464480449D+01 -.808569394447D-08
     .302155443130D-09  .100000000000D+01  .169200000000D+04  .000000000000D+00
     .340000000000D+01  .000000000000D+00 -.465661287308D-08  .810000000000D+02
     .396006000000D+06  .400000000000D+01
 4 12  6 14 16  0  0.0  .214144121855D-03  .113686837722D-10  .000000000000D+00
     .107000000000D+03 -.200937500000D+02  .506128225129D-08  .743499462537D+00
    -.853091478348D-06  .999691733159D-02  .797584652901D-05  .515360939217D+04
     .403200000000D+06 -.229105353355D-06 -.148304905065D+01  .409781932831D-07
     .937264676676D+00  .216031250000D+03  .859834567378D+00 -.832427531091D-08
    -.393944980818D-09  .100000000000D+01  .169200000000D+04  .000000000000D+00
     .240000000000D+01  .000000000000D+00 -.605359673500D-08  .107000000000D+03
     .396006000000D+06  .400000000000D+01
 6 12  6 14 16  0  0.0  .182241201401D-04 -.363797880709D-11  .000000000000D+00
     .160000000000D+02 -.287500000000D+01  .519200198201D-08 -.398146144522D+00
    -.173225998878D-06  .736870360561D-02  .623054802418D-05  .515368050575D+04
     .403200000000D+06  .353902578354D-07 -.258755512926D+01 -.216066837311D-06
     .938360294061D+00  .250218750000D+03 -.522279941296D+00 -.838320633705D-08
     .142148778210D-09  .100000000000D+01  .169200000000D+04  .000000000000D+00
     .240000000000D+01  .000000000000D+00 -.512227416039D-08  .160000000000D+02
     .396006000000D+06  .400000000000D+01
 7 12  6 14 16  0  0.0  .906293280423D-04  .363797880709D-11  .000000000000D+00
     .570000000000D+02 -.823437500000D+02  .427482092059D-08  .246778499621D+01
    -.416859984398D-05  .548861990683D-02  .548362731934D-05  .515360950279D+04
     .403200000000D+06 -.115483999252D-06  .167496917984D+01  .353902578354D-07
     .975629441442D+00  .284812500000D+03 -.302771992807D+01 -.801176229349D-08
    -.192508018732D-09  .100000000000D+01  .169200000000D+04  .000000000000D+00
     .240000000000D+01  .000000000000D+00 -.107102096081D-07  .570000000000D+02
     .396006000000D+06  .400000000000D+01
 8 12  6 14 16  0  0.0  .146497040987D-05  .113686837722D-12  .000000000000D+00
     .950000000000D+02 -.759375000000D+02  .384480300862D-08  .176806484352D+01
    -.374391674995D-05  .123225151328D-01  .619888305664D-05  .515367699242D+04
     .403200000000D+06 -.428408384323D-07  .175872764015D+01  .221654772758D-06
     .997844389367D+00  .284093750000D+03 -.296637253888D+01 -.781711132835D-08
    -.311441544219D-09  .100000000000D+01  .169200000000D+04  .000000000000D+00
     .340000000000D+01  .000000000000D+00 -.372529029846D-08  .950000000000D+02
     .396006000000D+06  .400000000000D+01
 9 12  6 14 16  0  0.0  .165022909641D-03  .250111042988D-11  .000000000000D+00
     .200000000000D+02 -.698437500000D+02  .399123767964D-08  .175659124871D+01
    -.402890145779D-05  .175359743880D-01  .508874654770D-05  .515362351990D+04
     .403200000000D+06  .189989805222D-06  .164934620626D+01 -.322237610817D-06
     .984358179155D+00  .291968750000D+03  .162395234612D+01 -.776175187955D-08
    -.209651589973D-09  .100000000000D+01  .169200000000D+04  .000000000000D+00
     .240000000000D+01  .000000000000D+00 -.558793544769D-08  .200000000000D+02
     .396006000000D+06  .400000000000D+01
11 12  6 14 16  0  0.0 -.271596945822D-03 -.386535248253D-11  .000000000000D+00
     .330000000000D+02 -.297187500000D+02  .621311594408D-08  .255963948216D+01
    -.162422657013D-05  .129746021703D-01  .640377402306D-05  .515367319489D+04
     .403200000000D+06  .152736902237D-06 -.175721848215D+01 -.171363353729D-06
     .887734558325D+00  .214968750000D+03  .105267583464D+01 -.864107422114D-08
    -.218580533328D-09  .100000000000D+01  .169200000000D+04  .000000000000D+00
     .240000000000D+01  .000000000000D+00 -.116415321827D-07  .330000000000D+02
     .396006000000D+06  .400000000000D+01
12 12  6 14 16  0  0.0  .745137222111D-04  .204636307899D-11  .000000000000D+00
     .500000000000D+02 -.298437500000D+02  .392194907921D-08  .215336994226D+01
    -.156462192535D-05  .411146378610D-02  .976957380772D-05  .515378451157D+04
     .403200000000D+06 -.894069671631D-07  .273160579204D+01  .726431608200D-07
     .980309881064D+00  .201718750000D+03  .783438537817D-01 -.765603319023D-08
     .141434462742D-09  .100000000000D+01  .169200000000D+04  .000000000000D+00
     .240000000000D+01  .000000000000D+00 -.121071934700D-07  .500000000000D+02
     .396006000000D+06  .400000000000D+01
13 12  6 14 16  0  0.0  .201032496989D-03 -.250111042988D-11  .000000000000D+00
     .106000000000D+03  .455000000000D+02  .428053544434D-08 -.158056156830D+01
     .248104333878D-05  .498698989395D-02  .359490513802D-05  .515365747452D+04
     .403200000000D+06 -.121071934700D-06  .704433505043D+00  .819563865662D-07
     .985704394407D+00  .329281250000D+03  .201921213426D+01 -.811855245601D-08
     .123933733766D-09  .100000000000D+01  .169200000000D+04  .000000000000D+00
     .240000000000D+01  .000000000000D+00 -.111758708954D-07  .106000000000D+03
     .396006000000D+06  .400000000000D+01
14 12  6 14 16  0  0.0  .205114949495D-03  .795807864051D-12  .000000000000D+00
     .400000000000D+02  .347187500000D+02  .441125517506D-08 -.137387417494D+01
     .198185443878D-05  .641223229468D-02  .314787030220D-05  .515359897041D+04
     .403200000000D+06  .670552253723D-07  .677610855246D+00  .763684511185D-07
     .978550221756D+00  .327531250000D+03 -.207144243365D+01 -.813926760459D-08
     .115004790411D-09  .100000000000D+01  .169200000000D+04  .000000000000D+00
     .240000000000D+01  .000000000000D+00 -.884756445885D-08  .400000000000D+02
     .396006000000D+06  .400000000000D+01
15 12  6 14 16  0  0.0 -.917329452932D-04 -.227373675443D-12  .000000000000D+00
     .320000000000D+02  .545312500000D+02  .510342686393D-08 -.185289118721D+01
     .260770320892D-05  .439133925829D-02  .329315662384D-05  .515357537842D+04
     .403200000000D+06  .465661287308D-07  .589216346106D+00 -.108033418655D-06
     .945414840529D+00  .309062500000D+03  .512040652891D-01 -.849928260066D-08
     .167149819604D-09  .100000000000D+01  .169200000000D+04  .000000000000D+00
     .240000000000D+01  .000000000000D+00 -.102445483208D-07  .320000000000D+02
     .396006000000D+06  .400000000000D+01
